{
    "links": {
        "self": "http://www.neowsapp.com/rest/v1/neo/3408173?api_key=iIulBulltgU6a56xZRHN4H3l9WmuAYTsLGpBGhQ2"
    },
    "id": "3408173",
    "neo_reference_id": "3408173",
    "name": "(2008 GF1)",
    "designation": "2008 GF1",
    "nasa_jpl_url": "http://ssd.jpl.nasa.gov/sbdb.cgi?sstr=3408173",
    "absolute_magnitude_h": 28.3,
    "estimated_diameter": {
        "kilometers": {
            "estimated_diameter_min": 0.0058150704,
            "estimated_diameter_max": 0.0130028927
        },
        "meters": {
            "estimated_diameter_min": 5.8150703965,
            "estimated_diameter_max": 13.0028927004
        },
        "miles": {
            "estimated_diameter_min": 0.0036133161,
            "estimated_diameter_max": 0.0080796204
        },
        "feet": {
            "estimated_diameter_min": 19.0783155595,
            "estimated_diameter_max": 42.6604104873
        }
    },
    "is_potentially_hazardous_asteroid": false,
    "close_approach_data": [
        {
            "close_approach_date": "2004-04-07",
            "close_approach_date_full": "2004-Apr-07 13:37",
            "epoch_date_close_approach": 1081345020000,
            "relative_velocity": {
                "kilometers_per_second": "13.9747328338",
                "kilometers_per_hour": "50309.0382015774",
                "miles_per_hour": "31260.0798758635"
            },
            "miss_distance": {
                "astronomical": "0.0076414521",
                "lunar": "2.9725248669",
                "kilometers": "1143144.957867027",
                "miles": "710317.3389658926"
            },
            "orbiting_body": "Moon"
        },
        {
            "close_approach_date": "2004-04-07",
            "close_approach_date_full": "2004-Apr-07 21:29",
            "epoch_date_close_approach": 1081373340000,
            "relative_velocity": {
                "kilometers_per_second": "14.4168510265",
                "kilometers_per_hour": "51900.6636955454",
                "miles_per_hour": "32249.0540612682"
            },
            "miss_distance": {
                "astronomical": "0.0065916426",
                "lunar": "2.5641489714",
                "kilometers": "986095.692761262",
                "miles": "612731.4507469356"
            },
            "orbiting_body": "Earth"
        },
        {
            "close_approach_date": "2005-10-30",
            "close_approach_date_full": "2005-Oct-30 19:32",
            "epoch_date_close_approach": 1130700720000,
            "relative_velocity": {
                "kilometers_per_second": "15.7602550907",
                "kilometers_per_hour": "56736.9183264941",
                "miles_per_hour": "35254.1146123707"
            },
            "miss_distance": {
                "astronomical": "0.0870018556",
                "lunar": "33.8437218284",
                "kilometers": "13015292.283807572",
                "miles": "8087327.6107936136"
            },
            "orbiting_body": "Venus"
        },
        {
            "close_approach_date": "2008-04-07",
            "close_approach_date_full": "2008-Apr-07 16:07",
            "epoch_date_close_approach": 1207584420000,
            "relative_velocity": {
                "kilometers_per_second": "14.6189548813",
                "kilometers_per_hour": "52628.2375727203",
                "miles_per_hour": "32701.140174005"
            },
            "miss_distance": {
                "astronomical": "0.0019631171",
                "lunar": "0.7636525519",
                "kilometers": "293678.136720577",
                "miles": "182483.1323028826"
            },
            "orbiting_body": "Earth"
        },
        {
            "close_approach_date": "2008-04-07",
            "close_approach_date_full": "2008-Apr-07 22:35",
            "epoch_date_close_approach": 1207607700000,
            "relative_velocity": {
                "kilometers_per_second": "15.0429542235",
                "kilometers_per_hour": "54154.6352045921",
                "miles_per_hour": "33649.5843025422"
            },
            "miss_distance": {
                "astronomical": "0.0013393419",
                "lunar": "0.5210039991",
                "kilometers": "200362.695441753",
                "miles": "124499.6058240714"
            },
            "orbiting_body": "Moon"
        }
    ],
    "orbital_data": {
        "orbit_id": "8",
        "orbit_determination_date": "2017-04-06 09:03:48",
        "first_observation_date": "2008-04-05",
        "last_observation_date": "2008-04-06",
        "data_arc_in_days": 1,
        "observations_used": 17,
        "orbit_uncertainty": "8",
        "minimum_orbit_intersection": ".00065362",
        "jupiter_tisserand_invariant": "5.149",
        "epoch_osculation": "2454562.5",
        "eccentricity": ".4632244927232081",
        "semi_major_axis": "1.211879783925844",
        "inclination": "1.553167407630104",
        "ascending_node_longitude": "16.64214541016904",
        "orbital_period": "487.2902682350392",
        "perihelion_distance": ".6505073857752839",
        "perihelion_argument": "277.486136618981",
        "aphelion_distance": "1.773252182076404",
        "perihelion_time": "2454622.883274713637",
        "mean_anomaly": "315.3900820230946",
        "mean_motion": ".7387793753893683",
        "equinox": "J2000",
        "orbit_class": {
            "orbit_class_type": "APO",
            "orbit_class_description": "Near-Earth asteroid orbits which cross the Earth’s orbit similar to that of 1862 Apollo",
            "orbit_class_range": "a (semi-major axis) > 1.0 AU; q (perihelion) < 1.017 AU"
        }
    },
    "is_sentry_object": false
}